{"type": "FeatureCollection", "features": [ {"type": "Feature", "properties": {"norad_id": 29820, "name": "FENGYUN 1C DEB", "group": "fengyun-1c-debris", "lat": 52.40664988282643, "lon": -177.01500223486923, "alt_km": 904.3108235749542, "timestamp": "2025-12-10T04:57:29.889791+00:00", "meta": {"OBJECT_NAME": "FENGYUN 1C DEB", "OBJECT_ID": "1999-025DN", "EPOCH": "2025-12-09T18:56:42.000000", "MEAN_MOTION": 14.02597205, "ECCENTRICITY": 0.0071944, "INCLINATION": 98.8316, "RA_OF_ASC_NODE": 350.9306, "ARG_OF_PERICENTER": 246.0351, "MEAN_ANOMALY": 295.7873, "EPHEMERIS_TYPE": 0, "CLASSIFICATION_TYPE": "U", "NORAD_CAT_ID": 29820, "ELEMENT_SET_NO": 999, "REV_AT_EPOCH": 96518, "BSTAR": 0.00082685, "MEAN_MOTION_DOT": 1.261e-05, "MEAN_MOTION_DDOT": 0}, "tle": {"line1": "1 29820U 99025DN  25343.78937500  .00001261  00000+0  82685-3 0  9993", "line2": "2 29820  98.8316 350.9306 0071944 246.0351 295.7873 14.02597205965185"}}, "geometry": {"type": "Point", "coordinates": [-177.01500223486923, 52.40664988282643]}}, {"type": "Feature", "properties": {"norad_id": 29821, "name": "FENGYUN 1C DEB", "group": "fengyun-1c-debris", "lat": 78.46584270732544, "lon": -90.82201948686367, "alt_km": 611.1724704363305, "timestamp": "2025-12-10T04:57:29.889801+00:00", "meta": {"OBJECT_NAME": "FENGYUN 1C DEB", "OBJECT_ID": "1999-025DP", "EPOCH": "2025-12-09T15:34:48.327744", "MEAN_MOTION": 14.11046028, "ECCENTRICITY": 0.0376358, "INCLINATION": 98.8736, "RA_OF_ASC_NODE": 38.6723, "ARG_OF_PERICENTER": 129.4236, "MEAN_ANOMALY": 20.0726, "EPHEMERIS_TYPE": 0, "CLASSIFICATION_TYPE": "U", "NORAD_CAT_ID": 29821, "ELEMENT_SET_NO": 999, "REV_AT_EPOCH": 96467, "BSTAR": 0.0010129, "MEAN_MOTION_DOT": 3.507e-05, "MEAN_MOTION_DDOT": 0}, "tle": {"line1": "1 29821U 99025DP  25343.64917046  .00003507  00000+0  10129-2 0  9990", "line2": "2 29821  98.8736  38.6723 0376358 129.4236  20.0726 14.11046028964679"}}, "geometry": {"type": "Point", "coordinates": [-90.82201948686367, 78.46584270732544]}}, {"type": "Feature", "properties": {"norad_id": 29827, "name": "FENGYUN 1C DEB", "group": "fengyun-1c-debris", "lat": -14.040878506606912, "lon": -22.3615649127852, "alt_km": 806.7743175174046, "timestamp": "2025-12-10T04:57:29.889811+00:00", "meta": {"OBJECT_NAME": "FENGYUN 1C DEB", "OBJECT_ID": "1999-025DV", "EPOCH": "2025-12-08T22:52:37.934112", "MEAN_MOTION": 14.21677819, "ECCENTRICITY": 0.0025205, "INCLINATION": 98.6017, "RA_OF_ASC_NODE": 334.2475, "ARG_OF_PERICENTER": 333.6576, "MEAN_ANOMALY": 80.9572, "EPHEMERIS_TYPE": 0, "CLASSIFICATION_TYPE": "U", "NORAD_CAT_ID": 29827, "ELEMENT_SET_NO": 999, "REV_AT_EPOCH": 97809, "BSTAR": 0.00051498, "MEAN_MOTION_DOT": 1.091e-05, "MEAN_MOTION_DDOT": 0}, "tle": {"line1": "1 29827U 99025DV  25342.95321683  .00001091  00000+0  51498-3 0  9996", "line2": "2 29827  98.6017 334.2475 0025205 333.6576  80.9572 14.21677819978096"}}, "geometry": {"type": "Point", "coordinates": [-22.3615649127852, -14.040878506606912]}}, {"type": "Feature", "properties": {"norad_id": 29828, "name": "FENGYUN 1C DEB", "group": "fengyun-1c-debris", "lat": 14.286135204873569, "lon": -147.99947806789464, "alt_km": 822.1633002006556, "timestamp": "2025-12-10T04:57:29.889821+00:00", "meta": {"OBJECT_NAME": "FENGYUN 1C DEB", "OBJECT_ID": "1999-025DW", "EPOCH": "2025-12-09T19:56:55.737024", "MEAN_MOTION": 14.0815283, "ECCENTRICITY": 0.0061329, "INCLINATION": 98.7702, "RA_OF_ASC_NODE": 29.3829, "ARG_OF_PERICENTER": 164.1276, "MEAN_ANOMALY": 259.3211, "EPHEMERIS_TYPE": 0, "CLASSIFICATION_TYPE": "U", "NORAD_CAT_ID": 29828, "ELEMENT_SET_NO": 999, "REV_AT_EPOCH": 96696, "BSTAR": 0.0011891, "MEAN_MOTION_DOT": 2.02e-05, "MEAN_MOTION_DDOT": 0}, "tle": {"line1": "1 29828U 99025DW  25343.83120066  .00002020  00000+0  11891-2 0  9992", "line2": "2 29828  98.7702  29.3829 0061329 164.1276 259.3211 14.08152830966966"}}, "geometry": {"type": "Point", "coordinates": [-147.99947806789464, 14.286135204873569]}}, {"type": "Feature", "properties": {"norad_id": 29832, "name": "FENGYUN 1C DEB", "group": "fengyun-1c-debris", "lat": 62.74548961327121, "lon": -66.97319977314291, "alt_km": 833.8649049616124, "timestamp": "2025-12-10T04:57:29.889831+00:00", "meta": {"OBJECT_NAME": "FENGYUN 1C DEB", "OBJECT_ID": "1999-025EA", "EPOCH": "2025-12-09T18:31:33.633120", "MEAN_MOTION": 14.56548345, "ECCENTRICITY": 0.0192272, "INCLINATION": 98.8194, "RA_OF_ASC_NODE": 95.0257, "ARG_OF_PERICENTER": 292.2128, "MEAN_ANOMALY": 65.877, "EPHEMERIS_TYPE": 0, "CLASSIFICATION_TYPE": "U", "NORAD_CAT_ID": 29832, "ELEMENT_SET_NO": 999, "REV_AT_EPOCH": 212, "BSTAR": 0.00025542, "MEAN_MOTION_DOT": 1.396e-05, "MEAN_MOTION_DDOT": 0}, "tle": {"line1": "1 29832U 99025EA  25343.77191705  .00001396  00000+0  25542-3 0  9992", "line2": "2 29832  98.8194  95.0257 0192272 292.2128  65.8770 14.56548345  2125"}}, "geometry": {"type": "Point", "coordinates": [-66.97319977314291, 62.74548961327121]}}, {"type": "Feature", "properties": {"norad_id": 29833, "name": "FENGYUN 1C DEB", "group": "fengyun-1c-debris", "lat": 12.604287114613943, "lon": 148.1972882451392, "alt_km": 604.4403084424284, "timestamp": "2025-12-10T04:57:29.889842+00:00", "meta": {"OBJECT_NAME": "FENGYUN 1C DEB", "OBJECT_ID": "1999-025EB", "EPOCH": "2025-12-08T11:56:08.611296", "MEAN_MOTION": 14.90933968, "ECCENTRICITY": 0.00890579, "INCLINATION": 99.077, "RA_OF_ASC_NODE": 324.185, "ARG_OF_PERICENTER": 270.8481, "MEAN_ANOMALY": 88.253, "EPHEMERIS_TYPE": 0, "CLASSIFICATION_TYPE": "U", "NORAD_CAT_ID": 29833, "ELEMENT_SET_NO": 999, "REV_AT_EPOCH": 508, "BSTAR": 0.0016956463, "MEAN_MOTION_DOT": 0.00018013, "MEAN_MOTION_DDOT": 0}, "tle": {"line1": "1 29833U 99025EB  25342.49732189  .00018013  00000+0  16956-2 0  9990", "line2": "2 29833  99.0770 324.1850 0089057 270.8481  88.2530 14.90933968  5082"}}, "geometry": {"type": "Point", "coordinates": [148.1972882451392, 12.604287114613943]}}, {"type": "Feature", "properties": {"norad_id": 29835, "name": "FENGYUN 1C DEB", "group": "fengyun-1c-debris", "lat": 67.9780507928229, "lon": 89.30537265472167, "alt_km": 631.962918067974, "timestamp": "2025-12-10T04:57:29.889852+00:00", "meta": {"OBJECT_NAME": "FENGYUN 1C DEB", "OBJECT_ID": "1999-025ED", "EPOCH": "2025-12-09T15:24:05.020128", "MEAN_MOTION": 14.4337231, "ECCENTRICITY": 0.0168059, "INCLINATION": 99.0255, "RA_OF_ASC_NODE": 111.8461, "ARG_OF_PERICENTER": 46.3733, "MEAN_ANOMALY": 329.2098, "EPHEMERIS_TYPE": 0, "CLASSIFICATION_TYPE": "U", "NORAD_CAT_ID": 29835, "ELEMENT_SET_NO": 999, "REV_AT_EPOCH": 99450, "BSTAR": 0.0001115, "MEAN_MOTION_DOT": 3.9e-06, "MEAN_MOTION_DDOT": 0}, "tle": {"line1": "1 29835U 99025ED  25343.64172477  .00000390  00000+0  11150-3 0  9999", "line2": "2 29835  99.0255 111.8461 0168059  46.3733 329.2098 14.43372310994504"}}, "geometry": {"type": "Point", "coordinates": [89.30537265472167, 67.9780507928229]}}, {"type": "Feature", "properties": {"norad_id": 29836, "name": "FENGYUN 1C DEB", "group": "fengyun-1c-debris", "lat": -40.97779425465304, "lon": -106.98509684406093, "alt_km": 611.4205133488167, "timestamp": "2025-12-10T04:57:29.889863+00:00", "meta": {"OBJECT_NAME": "FENGYUN 1C DEB", "OBJECT_ID": "1999-025EE", "EPOCH": "2025-12-09T13:07:53.518080", "MEAN_MOTION": 14.54069038, "ECCENTRICITY": 0.015443, "INCLINATION": 98.1879, "RA_OF_ASC_NODE": 79.554, "ARG_OF_PERICENTER": 212.2557, "MEAN_ANOMALY": 158.8492, "EPHEMERIS_TYPE": 0, "CLASSIFICATION_TYPE": "U", "NORAD_CAT_ID": 29836, "ELEMENT_SET_NO": 999, "REV_AT_EPOCH": 63509, "BSTAR": 0.0010746, "MEAN_MOTION_DOT": 5.268e-05, "MEAN_MOTION_DDOT": 0}, "tle": {"line1": "1 29836U 99025EE  25343.54714720  .00005268  00000+0  10746-2 0  9990", "line2": "2 29836  98.1879  79.5540 0154430 212.2557 158.8492 14.54069038635093"}}, "geometry": {"type": "Point", "coordinates": [-106.98509684406093, -40.97779425465304]}}, {"type": "Feature", "properties": {"norad_id": 29841, "name": "FENGYUN 1C DEB", "group": "fengyun-1c-debris", "lat": -55.34575842451648, "lon": -55.772183057804966, "alt_km": 630.0088183163389, "timestamp": "2025-12-10T04:57:29.889874+00:00", "meta": {"OBJECT_NAME": "FENGYUN 1C DEB", "OBJECT_ID": "1999-025EK", "EPOCH": "2025-12-09T19:22:56.570880", "MEAN_MOTION": 14.46452475, "ECCENTRICITY": 0.0200726, "INCLINATION": 98.8182, "RA_OF_ASC_NODE": 290.8349, "ARG_OF_PERICENTER": 342.5011, "MEAN_ANOMALY": 46.1332, "EPHEMERIS_TYPE": 0, "CLASSIFICATION_TYPE": "U", "NORAD_CAT_ID": 29841, "ELEMENT_SET_NO": 999, "REV_AT_EPOCH": 99281, "BSTAR": 0.00098723, "MEAN_MOTION_DOT": 4.507e-05, "MEAN_MOTION_DDOT": 0}, "tle": {"line1": "1 29841U 99025EK  25343.80759920  .00004507  00000+0  98723-3 0  9993", "line2": "2 29841  98.8182 290.8349 0200726 342.5011  46.1332 14.46452475992810"}}, "geometry": {"type": "Point", "coordinates": [-55.772183057804966, -55.34575842451648]}}, {"type": "Feature", "properties": {"norad_id": 29842, "name": "FENGYUN 1C DEB", "group": "fengyun-1c-debris", "lat": -48.551606714893595, "lon": -118.17384848650062, "alt_km": 655.7678847944135, "timestamp": "2025-12-10T04:57:29.889884+00:00", "meta": {"OBJECT_NAME": "FENGYUN 1C DEB", "OBJECT_ID": "1999-025EL", "EPOCH": "2025-12-09T05:08:31.348608", "MEAN_MOTION": 14.60168236, "ECCENTRICITY": 0.01092069, "INCLINATION": 98.5689, "RA_OF_ASC_NODE": 70.6311, "ARG_OF_PERICENTER": 176.1578, "MEAN_ANOMALY": 238.6796, "EPHEMERIS_TYPE": 0, "CLASSIFICATION_TYPE": "U", "NORAD_CAT_ID": 29842, "ELEMENT_SET_NO": 999, "REV_AT_EPOCH": 99302, "BSTAR": 0.0019398696, "MEAN_MOTION_DOT": 0.00010118, "MEAN_MOTION_DDOT": 0}, "tle": {"line1": "1 29842U 99025EL  25343.21425172  .00010118  00000+0  19399-2 0  9994", "line2": "2 29842  98.5689  70.6311 0109206 176.1578 238.6796 14.60168236993024"}}, "geometry": {"type": "Point", "coordinates": [-118.17384848650062, -48.551606714893595]}}]}